{
    "links": {
        "self": "http://www.neowsapp.com/rest/v1/neo/54092911?api_key=iIulBulltgU6a56xZRHN4H3l9WmuAYTsLGpBGhQ2"
    },
    "id": "54092911",
    "neo_reference_id": "54092911",
    "name": "(2020 WB3)",
    "designation": "2020 WB3",
    "nasa_jpl_url": "http://ssd.jpl.nasa.gov/sbdb.cgi?sstr=54092911",
    "absolute_magnitude_h": 20.282,
    "estimated_diameter": {
        "kilometers": {
            "estimated_diameter_min": 0.2334290898,
            "estimated_diameter_max": 0.5219633127
        },
        "meters": {
            "estimated_diameter_min": 233.4290897969,
            "estimated_diameter_max": 521.9633127117
        },
        "miles": {
            "estimated_diameter_min": 0.145046067,
            "estimated_diameter_max": 0.3243328656
        },
        "feet": {
            "estimated_diameter_min": 765.8434949692,
            "estimated_diameter_max": 1712.4781148772
        }
    },
    "is_potentially_hazardous_asteroid": true,
    "close_approach_data": [
        {
            "close_approach_date": "2020-10-30",
            "close_approach_date_full": "2020-Oct-30 08:55",
            "epoch_date_close_approach": 1604048100000,
            "relative_velocity": {
                "kilometers_per_second": "14.5381494962",
                "kilometers_per_hour": "52337.338186293",
                "miles_per_hour": "32520.386608033"
            },
            "miss_distance": {
                "astronomical": "0.2331441291",
                "lunar": "90.6930662199",
                "kilometers": "34877865.116365017",
                "miles": "21672100.4346585546"
            },
            "orbiting_body": "Earth"
        },
        {
            "close_approach_date": "2024-08-29",
            "close_approach_date_full": "2024-Aug-29 01:33",
            "epoch_date_close_approach": 1724895180000,
            "relative_velocity": {
                "kilometers_per_second": "24.1790004868",
                "kilometers_per_hour": "87044.4017525826",
                "miles_per_hour": "54086.0061889867"
            },
            "miss_distance": {
                "astronomical": "0.4128089237",
                "lunar": "160.5826713193",
                "kilometers": "61755335.702512519",
                "miles": "38372986.2265260022"
            },
            "orbiting_body": "Earth"
        },
        {
            "close_approach_date": "2089-04-03",
            "close_approach_date_full": "2089-Apr-03 05:18",
            "epoch_date_close_approach": 3763343880000,
            "relative_velocity": {
                "kilometers_per_second": "5.8891959747",
                "kilometers_per_hour": "21201.1055088376",
                "miles_per_hour": "13173.5424757552"
            },
            "miss_distance": {
                "astronomical": "1.9173937821",
                "lunar": "745.8661812369",
                "kilometers": "286838025.753404127",
                "miles": "178232884.4344938726"
            },
            "orbiting_body": "Juptr"
        }
    ],
    "orbital_data": {
        "orbit_id": "11",
        "orbit_determination_date": "2020-12-04 05:18:57",
        "first_observation_date": "2020-11-21",
        "last_observation_date": "2020-12-04",
        "data_arc_in_days": 13,
        "observations_used": 73,
        "orbit_uncertainty": "7",
        "minimum_orbit_intersection": ".00173112",
        "jupiter_tisserand_invariant": "3.123",
        "epoch_osculation": "2459000.5",
        "eccentricity": ".6138479043478473",
        "semi_major_axis": "2.473214741652597",
        "inclination": "20.50012358154549",
        "ascending_node_longitude": "5.921839173852354",
        "orbital_period": "1420.663316616833",
        "perihelion_distance": ".9550370554869477",
        "perihelion_argument": "29.05752471614212",
        "aphelion_distance": "3.991392427818246",
        "perihelion_time": "2459159.004107589793",
        "mean_anomaly": "319.8346222747472",
        "mean_motion": ".2534027561556976",
        "equinox": "J2000",
        "orbit_class": {
            "orbit_class_type": "APO",
            "orbit_class_description": "Near-Earth asteroid orbits which cross the Earth’s orbit similar to that of 1862 Apollo",
            "orbit_class_range": "a (semi-major axis) > 1.0 AU; q (perihelion) < 1.017 AU"
        }
    },
    "is_sentry_object": false
}